{"type": "FeatureCollection", "features": [ {"type": "Feature", "properties": {"norad_id": 38779, "name": "GSAT-10 (GAGAN/PRN 128)", "group": "gnss", "lat": -0.070897657274776, "lon": -132.55840122183994, "alt_km": 35787.31651496153, "timestamp": "2025-12-15T04:01:20.695097+00:00", "meta": {"OBJECT_NAME": "GSAT-10 (GAGAN/PRN 128)", "OBJECT_ID": "2012-051B", "EPOCH": "2025-12-14T03:32:31.718976", "MEAN_MOTION": 1.00273023, "ECCENTRICITY": 0.00024774, "INCLINATION": 0.0861, "RA_OF_ASC_NODE": 266.1624, "ARG_OF_PERICENTER": 223.081, "MEAN_ANOMALY": 89.9669, "EPHEMERIS_TYPE": 0, "CLASSIFICATION_TYPE": "U", "NORAD_CAT_ID": 38779, "ELEMENT_SET_NO": 999, "REV_AT_EPOCH": 4824, "BSTAR": 0, "MEAN_MOTION_DOT": -1.48e-06, "MEAN_MOTION_DDOT": 0}, "tle": {"line1": "1 38779U 12051B   25348.14758934 -.00000148  00000+0  00000+0 0  9998", "line2": "2 38779   0.0861 266.1624 0002477 223.0810  89.9669  1.00273023 48247"}}, "geometry": {"type": "Point", "coordinates": [-132.55840122183994, -0.070897657274776]}}, {"type": "Feature", "properties": {"norad_id": 38833, "name": "GPS BIIF-3  (PRN 24)", "group": "gnss", "lat": -41.06847947981096, "lon": 11.222605779344367, "alt_km": 20647.603726642446, "timestamp": "2025-12-15T04:01:20.695109+00:00", "meta": {"OBJECT_NAME": "GPS BIIF-3  (PRN 24)", "OBJECT_ID": "2012-053A", "EPOCH": "2025-12-13T20:21:34.724448", "MEAN_MOTION": 2.00565042, "ECCENTRICITY": 0.01758819, "INCLINATION": 53.5579, "RA_OF_ASC_NODE": 151.1931, "ARG_OF_PERICENTER": 64.0051, "MEAN_ANOMALY": 297.7998, "EPHEMERIS_TYPE": 0, "CLASSIFICATION_TYPE": "U", "NORAD_CAT_ID": 38833, "ELEMENT_SET_NO": 999, "REV_AT_EPOCH": 9572, "BSTAR": 0, "MEAN_MOTION_DOT": 9.2e-07, "MEAN_MOTION_DDOT": 0}, "tle": {"line1": "1 38833U 12053A   25347.84831857  .00000092  00000+0  00000+0 0  9990", "line2": "2 38833  53.5579 151.1931 0175881  64.0051 297.7998  2.00565042 95726"}}, "geometry": {"type": "Point", "coordinates": [11.222605779344367, -41.06847947981096]}}, {"type": "Feature", "properties": {"norad_id": 38857, "name": "GSAT0103 (GALILEO-FM3)", "group": "gnss", "lat": -52.378843002570214, "lon": 44.32348694327721, "alt_km": 23220.437023470844, "timestamp": "2025-12-15T04:01:20.695121+00:00", "meta": {"OBJECT_NAME": "GSAT0103 (GALILEO-FM3)", "OBJECT_ID": "2012-055A", "EPOCH": "2025-12-13T12:39:44.093088", "MEAN_MOTION": 1.70473367, "ECCENTRICITY": 0.00026827, "INCLINATION": 55.6929, "RA_OF_ASC_NODE": 106.6448, "ARG_OF_PERICENTER": 268.8486, "MEAN_ANOMALY": 91.0883, "EPHEMERIS_TYPE": 0, "CLASSIFICATION_TYPE": "U", "NORAD_CAT_ID": 38857, "ELEMENT_SET_NO": 999, "REV_AT_EPOCH": 8184, "BSTAR": 0, "MEAN_MOTION_DOT": 1e-08, "MEAN_MOTION_DDOT": 0}, "tle": {"line1": "1 38857U 12055A   25347.52759367  .00000001  00000+0  00000+0 0  9998", "line2": "2 38857  55.6929 106.6448 0002682 268.8486  91.0883  1.70473367 81846"}}, "geometry": {"type": "Point", "coordinates": [44.32348694327721, -52.378843002570214]}}, {"type": "Feature", "properties": {"norad_id": 38953, "name": "BEIDOU-2 G6 (C02)", "group": "gnss", "lat": 1.7833984827823084, "lon": -131.60676112238366, "alt_km": 35810.979588869326, "timestamp": "2025-12-15T04:01:20.695137+00:00", "meta": {"OBJECT_NAME": "BEIDOU-2 G6 (C02)", "OBJECT_ID": "2012-059A", "EPOCH": "2025-12-13T20:41:54.109248", "MEAN_MOTION": 1.00269673, "ECCENTRICITY": 0.00079036, "INCLINATION": 3.9524, "RA_OF_ASC_NODE": 75.4959, "ARG_OF_PERICENTER": 290.1643, "MEAN_ANOMALY": 111.6061, "EPHEMERIS_TYPE": 0, "CLASSIFICATION_TYPE": "U", "NORAD_CAT_ID": 38953, "ELEMENT_SET_NO": 999, "REV_AT_EPOCH": 4805, "BSTAR": 0, "MEAN_MOTION_DOT": -1.6e-06, "MEAN_MOTION_DDOT": 0}, "tle": {"line1": "1 38953U 12059A   25347.86243182 -.00000160  00000+0  00000+0 0  9996", "line2": "2 38953   3.9524  75.4959 0007903 290.1643 111.6061  1.00269673 48053"}}, "geometry": {"type": "Point", "coordinates": [-131.60676112238366, 1.7833984827823084]}}, {"type": "Feature", "properties": {"norad_id": 38977, "name": "LUCH 5B (SDCM/PRN 125)", "group": "gnss", "lat": 9.81135238763476, "lon": 127.79631720391758, "alt_km": 35798.291185624075, "timestamp": "2025-12-15T04:01:20.695152+00:00", "meta": {"OBJECT_NAME": "LUCH 5B (SDCM/PRN 125)", "OBJECT_ID": "2012-061A", "EPOCH": "2025-12-13T23:38:39.482016", "MEAN_MOTION": 1.00272417, "ECCENTRICITY": 0.00069741, "INCLINATION": 10.0843, "RA_OF_ASC_NODE": 51.6952, "ARG_OF_PERICENTER": 193.6655, "MEAN_ANOMALY": 175.8757, "EPHEMERIS_TYPE": 0, "CLASSIFICATION_TYPE": "U", "NORAD_CAT_ID": 38977, "ELEMENT_SET_NO": 999, "REV_AT_EPOCH": 4775, "BSTAR": 0, "MEAN_MOTION_DOT": -1.27e-06, "MEAN_MOTION_DDOT": 0}, "tle": {"line1": "1 38977U 12061A   25347.98517919 -.00000127  00000+0  00000+0 0  9993", "line2": "2 38977  10.0843  51.6952 0006974 193.6655 175.8757  1.00272417 47758"}}, "geometry": {"type": "Point", "coordinates": [127.79631720391758, 9.81135238763476]}}, {"type": "Feature", "properties": {"norad_id": 39155, "name": "COSMOS 2485 (747)", "group": "gnss", "lat": 19.5201986944613, "lon": -109.57911357045356, "alt_km": 19107.41263266401, "timestamp": "2025-12-15T04:01:20.695164+00:00", "meta": {"OBJECT_NAME": "COSMOS 2485 (747)", "OBJECT_ID": "2013-019A", "EPOCH": "2025-12-13T13:15:58.678272", "MEAN_MOTION": 2.13102947, "ECCENTRICITY": 0.00246467, "INCLINATION": 65.3142, "RA_OF_ASC_NODE": 79.8396, "ARG_OF_PERICENTER": 229.7128, "MEAN_ANOMALY": 130.0848, "EPHEMERIS_TYPE": 0, "CLASSIFICATION_TYPE": "U", "NORAD_CAT_ID": 39155, "ELEMENT_SET_NO": 999, "REV_AT_EPOCH": 9832, "BSTAR": 0, "MEAN_MOTION_DOT": -4.8e-07, "MEAN_MOTION_DDOT": 0}, "tle": {"line1": "1 39155U 13019A   25347.55276248 -.00000048  00000+0  00000+0 0  9998", "line2": "2 39155  65.3142  79.8396 0024646 229.7128 130.0848  2.13102947 98326"}}, "geometry": {"type": "Point", "coordinates": [-109.57911357045356, 19.5201986944613]}}, {"type": "Feature", "properties": {"norad_id": 39166, "name": "GPS BIIF-4  (PRN 27)", "group": "gnss", "lat": -23.73081880770951, "lon": -101.70303220365255, "alt_km": 20105.389001146475, "timestamp": "2025-12-15T04:01:20.695176+00:00", "meta": {"OBJECT_NAME": "GPS BIIF-4  (PRN 27)", "OBJECT_ID": "2013-023A", "EPOCH": "2025-12-13T05:07:46.586496", "MEAN_MOTION": 2.0056518, "ECCENTRICITY": 0.01379131, "INCLINATION": 54.6516, "RA_OF_ASC_NODE": 276.5489, "ARG_OF_PERICENTER": 48.6136, "MEAN_ANOMALY": 312.5751, "EPHEMERIS_TYPE": 0, "CLASSIFICATION_TYPE": "U", "NORAD_CAT_ID": 39166, "ELEMENT_SET_NO": 999, "REV_AT_EPOCH": 9215, "BSTAR": 0, "MEAN_MOTION_DOT": -7.6e-07, "MEAN_MOTION_DDOT": 0}, "tle": {"line1": "1 39166U 13023A   25347.21373364 -.00000076  00000+0  00000+0 0  9996", "line2": "2 39166  54.6516 276.5489 0137913  48.6136 312.5751  2.00565180 92155"}}, "geometry": {"type": "Point", "coordinates": [-101.70303220365255, -23.73081880770951]}}, {"type": "Feature", "properties": {"norad_id": 39199, "name": "IRNSS-1A", "group": "gnss", "lat": 24.933223623335937, "lon": -154.45324386561535, "alt_km": 35724.33864426175, "timestamp": "2025-12-15T04:01:20.695190+00:00", "meta": {"OBJECT_NAME": "IRNSS-1A", "OBJECT_ID": "2013-034A", "EPOCH": "2025-12-02T19:49:26.431104", "MEAN_MOTION": 1.00279053, "ECCENTRICITY": 0.00216608, "INCLINATION": 35.2852, "RA_OF_ASC_NODE": 66.6964, "ARG_OF_PERICENTER": 185.4059, "MEAN_ANOMALY": 172.3398, "EPHEMERIS_TYPE": 0, "CLASSIFICATION_TYPE": "U", "NORAD_CAT_ID": 39199, "ELEMENT_SET_NO": 999, "REV_AT_EPOCH": 4539, "BSTAR": 0, "MEAN_MOTION_DOT": 6.5e-07, "MEAN_MOTION_DDOT": 0}, "tle": {"line1": "1 39199U 13034A   25336.82600036  .00000065  00000+0  00000+0 0  9995", "line2": "2 39199  35.2852  66.6964 0021660 185.4059 172.3398  1.00279053 45393"}}, "geometry": {"type": "Point", "coordinates": [-154.45324386561535, 24.933223623335937]}}, {"type": "Feature", "properties": {"norad_id": 39533, "name": "GPS BIIF-5  (PRN 30)", "group": "gnss", "lat": -19.552747559895664, "lon": 141.6405861995016, "alt_km": 20250.468968258305, "timestamp": "2025-12-15T04:01:20.695203+00:00", "meta": {"OBJECT_NAME": "GPS BIIF-5  (PRN 30)", "OBJECT_ID": "2014-008A", "EPOCH": "2025-12-13T16:57:00.836352", "MEAN_MOTION": 2.00574526, "ECCENTRICITY": 0.00792524, "INCLINATION": 53.6313, "RA_OF_ASC_NODE": 156.8852, "ARG_OF_PERICENTER": 226.5204, "MEAN_ANOMALY": 132.8312, "EPHEMERIS_TYPE": 0, "CLASSIFICATION_TYPE": "U", "NORAD_CAT_ID": 39533, "ELEMENT_SET_NO": 999, "REV_AT_EPOCH": 8596, "BSTAR": 0, "MEAN_MOTION_DOT": 9.8e-07, "MEAN_MOTION_DDOT": 0}, "tle": {"line1": "1 39533U 14008A   25347.70625968  .00000098  00000+0  00000+0 0  9995", "line2": "2 39533  53.6313 156.8852 0079252 226.5204 132.8312  2.00574526 85966"}}, "geometry": {"type": "Point", "coordinates": [141.6405861995016, -19.552747559895664]}}, {"type": "Feature", "properties": {"norad_id": 39617, "name": "ASTRA 5B (EGNOS/PRN 123)", "group": "gnss", "lat": 0.046932189291063596, "lon": 167.84943415904712, "alt_km": 35788.447714813396, "timestamp": "2025-12-15T04:01:20.695215+00:00", "meta": {"OBJECT_NAME": "ASTRA 5B (EGNOS/PRN 123)", "OBJECT_ID": "2014-011B", "EPOCH": "2025-12-14T06:40:51.181824", "MEAN_MOTION": 1.00273338, "ECCENTRICITY": 0.00042871, "INCLINATION": 0.0639, "RA_OF_ASC_NODE": 41.0853, "ARG_OF_PERICENTER": 226.1071, "MEAN_ANOMALY": 299.7109, "EPHEMERIS_TYPE": 0, "CLASSIFICATION_TYPE": "U", "NORAD_CAT_ID": 39617, "ELEMENT_SET_NO": 999, "REV_AT_EPOCH": 4281, "BSTAR": 0, "MEAN_MOTION_DOT": 1.55e-06, "MEAN_MOTION_DDOT": 0}, "tle": {"line1": "1 39617U 14011B   25348.27837016  .00000155  00000+0  00000+0 0  9998", "line2": "2 39617   0.0639  41.0853 0004287 226.1071 299.7109  1.00273338 42816"}}, "geometry": {"type": "Point", "coordinates": [167.84943415904712, 0.046932189291063596]}}]}